IRIDIUM 33 DEB          
1 34490U 97051GF  17345.94995971  .00008695  00000-0  12214-2 0  9995
2 34490  86.3276 164.1394 0040904 139.9827 336.8404 14.76711871464744
